{
  "norad_id": 64251,
  "name": "STARLINK-34224",
  "history": [
    {
      "epoch": "2026-04-15T06:00:42.870816Z",
      "apogee_km": 484.1535182310554,
      "perigee_km": 481.8948239735282,
      "latitude_deg": 1.16202271421209e-05,
      "longitude_deg": 166.7350270552688,
      "height_km": 482.69470898030414,
      "semi_major_axis_km": 6861.1611711022915,
      "eccentricity": 0.0001646,
      "inclination_deg": 43.0018,
      "raan_deg": 100.3289,
      "arg_perigee_deg": 275.4148,
      "mean_anomaly_deg": 84.6516,
      "mean_motion_rev_day": 15.27588324
    },
    {
      "epoch": "2026-04-16T05:33:03.443040Z",
      "apogee_km": 483.9916360883444,
      "perigee_km": 482.0856015014424,
      "latitude_deg": -2.390430671965736e-05,
      "longitude_deg": 167.14285916633187,
      "height_km": 482.9609934484663,
      "semi_major_axis_km": 6861.175618794893,
      "eccentricity": 0.0001389,
      "inclination_deg": 43.0015,
      "raan_deg": 94.7892,
      "arg_perigee_deg": 261.2153,
      "mean_anomaly_deg": 98.8541,
      "mean_motion_rev_day": 15.27583499
    },
    {
      "epoch": "2026-04-17T22:21:07.339680Z",
      "apogee_km": 483.79037053676984,
      "perigee_km": 482.2418082844888,
      "latitude_deg": -4.666037133849451e-05,
      "longitude_deg": -96.15463948747265,
      "height_km": 483.36477916585005,
      "semi_major_axis_km": 6861.153089410629,
      "eccentricity": 0.00011285,
      "inclination_deg": 42.9984,
      "raan_deg": 85.1836,
      "arg_perigee_deg": 222.2869,
      "mean_anomaly_deg": 137.7895,
      "mean_motion_rev_day": 15.27591023
    },
    {
      "epoch": "2026-04-18T15:36:50.768640Z",
      "apogee_km": 484.0978487603543,
      "perigee_km": 481.95579341540997,
      "latitude_deg": 4.255650595679291e-05,
      "longitude_deg": 0.1477739695567921,
      "height_km": 482.94675280001155,
      "semi_major_axis_km": 6861.163821087882,
      "eccentricity": 0.0001561,
      "inclination_deg": 43.002,
      "raan_deg": 81.1258,
      "arg_perigee_deg": 262.3319,
      "mean_anomaly_deg": 97.7356,
      "mean_motion_rev_day": 15.27587439
    },
    {
      "epoch": "2026-04-19T15:09:12.345696Z",
      "apogee_km": 484.3576754271253,
      "perigee_km": 481.77786243400715,
      "latitude_deg": 2.392658846787473e-05,
      "longitude_deg": 0.5526230971732039,
      "height_km": 482.7630260280113,
      "semi_major_axis_km": 6861.2047689305655,
      "eccentricity": 0.000188,
      "inclination_deg": 43.0042,
      "raan_deg": 75.5873,
      "arg_perigee_deg": 273.6582,
      "mean_anomaly_deg": 86.4055,
      "mean_motion_rev_day": 15.27573764
    },
    {
      "epoch": "2026-04-20T06:50:46.245408Z",
      "apogee_km": 484.2688677792885,
      "perigee_km": 481.8166821277209,
      "latitude_deg": -3.285670250225993e-05,
      "longitude_deg": 120.82513431665105,
      "height_km": 482.7255190197612,
      "semi_major_axis_km": 6861.179774953504,
      "eccentricity": 0.0001787,
      "inclination_deg": 43.004,
      "raan_deg": 71.8956,
      "arg_perigee_deg": 274.431,
      "mean_anomaly_deg": 85.6337,
      "mean_motion_rev_day": 15.27582111
    },
    {
      "epoch": "2026-04-21T20:30:30.773376Z",
      "apogee_km": 484.18025162160666,
      "perigee_km": 481.7637690281699,
      "latitude_deg": -3.1488992378905004e-05,
      "longitude_deg": -94.51903977311494,
      "height_km": 482.6547106269553,
      "semi_major_axis_km": 6861.109010324888,
      "eccentricity": 0.0001761,
      "inclination_deg": 43.003,
      "raan_deg": 63.0337,
      "arg_perigee_deg": 274.4923,
      "mean_anomaly_deg": 85.5727,
      "mean_motion_rev_day": 15.27605744
    },
    {
      "epoch": "2026-04-22T13:46:13.855872Z",
      "apogee_km": 484.51420301097914,
      "perigee_km": 481.54743404624605,
      "latitude_deg": -8.832895336273936e-06,
      "longitude_deg": 1.7782484027427081,
      "height_km": 483.1363443434687,
      "semi_major_axis_km": 6861.167818528612,
      "eccentricity": 0.0002162,
      "inclination_deg": 43.0062,
      "raan_deg": 58.9694,
      "arg_perigee_deg": 257.2402,
      "mean_anomaly_deg": 102.8208,
      "mean_motion_rev_day": 15.27586104
    },
    {
      "epoch": "2026-04-23T13:18:35.159040Z",
      "apogee_km": 484.61031132762673,
      "perigee_km": 481.4699505547942,
      "latitude_deg": -2.5729423699751496e-05,
      "longitude_deg": 2.185042482296416,
      "height_km": 483.08774001818966,
      "semi_major_axis_km": 6861.17713094121,
      "eccentricity": 0.00022885,
      "inclination_deg": 43.0045,
      "raan_deg": 53.4317,
      "arg_perigee_deg": 260.1065,
      "mean_anomaly_deg": 99.9528,
      "mean_motion_rev_day": 15.27582994
    },
    {
      "epoch": "2026-04-24T20:41:44.614752Z",
      "apogee_km": 484.0789430127106,
      "perigee_km": 482.1495591609055,
      "latitude_deg": 4.842555303369173e-05,
      "longitude_deg": -117.27555438843821,
      "height_km": 483.03241500698806,
      "semi_major_axis_km": 6861.251251086808,
      "eccentricity": 0.0001406,
      "inclination_deg": 43.004,
      "raan_deg": 46.0494,
      "arg_perigee_deg": 261.5927,
      "mean_anomaly_deg": 98.4766,
      "mean_motion_rev_day": 15.27558241
    },
    {
      "epoch": "2026-04-25T18:39:55.511712Z",
      "apogee_km": 483.9735411248066,
      "perigee_km": 481.9550051302531,
      "latitude_deg": -2.0668743548565088e-05,
      "longitude_deg": -92.89369548742647,
      "height_km": 482.9638715703887,
      "semi_major_axis_km": 6861.10127312753,
      "eccentricity": 0.0001471,
      "inclination_deg": 43.0046,
      "raan_deg": 40.879,
      "arg_perigee_deg": 257.2707,
      "mean_anomaly_deg": 102.798,
      "mean_motion_rev_day": 15.27608328
    },
    {
      "epoch": "2026-04-26T19:46:24.635136Z",
      "apogee_km": 483.899042591117,
      "perigee_km": 482.11020574686427,
      "latitude_deg": 2.199549149952875e-05,
      "longitude_deg": -116.45434976035334,
      "height_km": 482.84501243407504,
      "semi_major_axis_km": 6861.14162416899,
      "eccentricity": 0.00013036,
      "inclination_deg": 43.0046,
      "raan_deg": 34.9708,
      "arg_perigee_deg": 265.9436,
      "mean_anomaly_deg": 94.1267,
      "mean_motion_rev_day": 15.27594852
    },
    {
      "epoch": "2026-04-27T19:18:45.563328Z",
      "apogee_km": 484.0160937712553,
      "perigee_km": 482.0867275901719,
      "latitude_deg": 1.544258063763494e-05,
      "longitude_deg": -116.04787519353806,
      "height_km": 483.22369852477834,
      "semi_major_axis_km": 6861.188410680714,
      "eccentricity": 0.0001406,
      "inclination_deg": 43.0049,
      "raan_deg": 29.4312,
      "arg_perigee_deg": 245.8163,
      "mean_anomaly_deg": 114.2542,
      "mean_motion_rev_day": 15.27579227
    }
  ]
}